{
  "type": "FeatureCollection",
  "generator": "overpass-ide",
  "copyright": "The data included in this document is from OpenStreetMap coordinates on the OpenStreetMap website. The data is available under the Open Database License.",
  "timestamp": "2026-09-30T07:11:03Z",
  "features": [
    {
      "type": "Feature",
      "properties": {
        "@id": "relation/1550977",
        "colour": "#336699",
        "from": "Milano Cadorna",
        "name": "Linee regionali R16: Milano Cadorna = Asso",
        "network": "Lombardia express",
        "operator": "Trenord",
        "ref": "R16",
        "route": "train",
        "service": "regional",
        "to": "Asso",
        "type": "route",
        "interval": "01:00"
      },
      "geometry": {
        "type": "LineString",
        "coordinates": [
          [9.1768, 45.4682],
          [9.1785, 45.4741],
          [9.1820, 45.4851],
          [9.2230, 45.5035],
          [9.2270, 45.5260],
          [9.2265, 45.5450],
          [9.2205, 45.5680],
          [9.2230, 45.6020],
          [9.2190, 45.6280],
          [9.2195, 45.6540],
          [9.2280, 45.6880],
          [9.2390, 45.7180],
          [9.2520, 45.7480],
          [9.2700, 45.7720],
          [9.2740, 45.8110],
          [9.2750, 45.8610]
        ]
      }
    }
  ]
}
