{
  "type": "FeatureCollection",
  "features": [
    {
      "type": "Feature",
      "properties": {
        "id": "R17",
        "nome": "Milano Cadorna - Como Lago",
        "origine": "Milano Cadorna"
      },
      "geometry": {
        "type": "LineString",
        "coordinates": [
          [9.1751667, 45.4684932], [9.1750079, 45.4686186], [9.1732696, 45.4699765],
          [9.1725189, 45.4705576], [9.1722267, 45.470783], [9.1719662, 45.4709834],
          [9.1715882, 45.4712757], [9.171251, 45.4715313], [9.1705839, 45.4720508],
          [9.1704042, 45.4722041], [9.1702493, 45.4723546], [9.1701042, 45.4725123],
          [9.169985, 45.4726603], [9.1698422, 45.472845], [9.1696428, 45.4731174],
          [9.1694598, 45.4733602], [9.1692596, 45.4736007], [9.1691652, 45.4737074],
          [9.1691013, 45.4737761], [9.1690242, 45.4738532], [9.1688994, 45.4739717],
          [9.1687322, 45.4741237], [9.1684948, 45.4743344], [9.1682597, 45.4745378],
          [9.1680116, 45.4747673], [9.1678172, 45.4749657], [9.1676334, 45.4751679],
          [9.1674846, 45.4753525], [9.1673287, 45.4755528], [9.1671731, 45.4757525],
          [9.167025, 45.4759564], [9.1665779, 45.4765389], [9.1662984, 45.4768896],
          [9.1660943, 45.4771268], [9.165835, 45.4774305], [9.1655614, 45.4777258],
          [9.1653274, 45.4779579], [9.1648373, 45.48416], [9.1644155, 45.478823],
          [9.1640755, 45.4791447], [9.1639065, 45.4793065], [9.1637697, 45.4794381],
          [9.16359, 45.479598], [9.1634237, 45.47974], [9.1628766, 45.4801726],
          [9.1622666, 45.4806969], [9.1619126, 45.4810302], [9.1616737, 45.481273],
          [9.1614302, 45.4815404], [9.1611387, 45.4819205], [9.1609261, 45.4822454],
          [9.1607811, 45.4825174], [9.1606658, 45.4828111], [9.1605878, 45.4830654],
          [9.160536, 45.4833163], [9.1605004, 45.4835629], [9.1604836, 45.4838444],
          [9.160495, 45.4841794], [9.1605552, 45.4847287], [9.1606021, 45.4852409],
          [9.1606331, 45.4857245], [9.160653, 45.4863614], [9.1606718, 45.4870271],
          [9.1607464, 45.4882843], [9.1608428, 45.4890142], [9.1608917, 45.4893456],
          [9.1609239, 45.4896201], [9.160948, 45.4898852], [9.1609534, 45.4901034],
          [9.1609588, 45.4903591], [9.1609479, 45.4906819], [9.1609296, 45.490942],
          [9.1608902, 45.4912626], [9.1608381, 45.4915549], [9.1607258, 45.4920339],
          [9.1605724, 45.4928357], [9.1604572, 45.4934375], [9.1603754, 45.4938726],
          [9.1603338, 45.4941336], [9.1602212, 45.4950023], [9.1600787, 45.4961856],
          [9.1600202, 45.4966424], [9.1599463, 45.4972772], [9.1599187, 45.4975867],
          [9.15984, 45.4981807], [9.1597599, 45.4987587], [9.1597183, 45.4991554],
          [9.1596593, 45.4996019], [9.1595895, 45.5001462], [9.1594943, 45.5009048],
          [9.159209, 45.5021505], [9.1591091, 45.502528], [9.1588558, 45.5034854],
          [9.1587224, 45.503859], [9.1586406, 45.5040495], [9.1585609, 45.5042114],
          [9.1584575, 45.5043864], [9.1583477, 45.5045517], [9.1582182, 45.5047309],
          [9.1580714, 45.5049146], [9.1579305, 45.5050716], [9.1577496, 45.5052613],
          [9.1575, 45.5055068], [9.1571776, 45.5058276], [9.1568228, 45.5061834],
          [9.1564037, 45.5065965], [9.1560281, 45.5069659], [9.1555408, 45.507486],
          [9.1547036, 45.5084333], [9.1535996, 45.5097068], [9.1526192, 45.5108438],
          [9.1520116, 45.5115217], [9.1514008, 45.5121814], [9.1508, 45.5128317],
          [9.150152, 45.5135348], [9.1494106, 45.514349], [9.1475994, 45.5164112],
          [9.1457051, 45.5185536], [9.1442914, 45.5201608], [9.1436828, 45.52087],
          [9.1424704, 45.5222593], [9.1401135, 45.5249404], [9.1389406, 45.5262878],
          [9.1358172, 45.5298368], [9.1351419, 45.5306063], [9.1346738, 45.5311103],
          [9.1337927, 45.5320159], [9.1330589, 45.5327409], [9.1318647, 45.5339146],
          [9.1306479, 45.5351964], [9.1296085, 45.5362385], [9.1275284, 45.5382728],
          [9.126131, 45.5396443], [9.1250139, 45.5407292], [9.1241496, 45.541544],
          [9.1230035, 45.5426588], [9.1221584, 45.5434898], [9.1210776, 45.5445952],
          [9.1200605, 45.5456251], [9.1183295, 45.5472191], [9.1168398, 45.5485794],
          [9.1156228, 45.5496867], [9.1148275, 45.5503681], [9.1138395, 45.5511979],
          [9.1121948, 45.5526715], [9.1109995, 45.553782], [9.1100856, 45.5546583],
          [9.1079884, 45.5565865], [9.1067386, 45.5577296], [9.105846, 45.5587484],
          [9.100725, 45.562858], [9.0988791, 45.5644287], [9.0977217, 45.5654042],
          [9.0955754, 45.5673506], [9.0940837, 45.5685951], [9.0928601, 45.5696315],
          [9.0912392, 45.5710056], [9.0897529, 45.5722704], [9.0871763, 45.5744571],
          [9.0856243, 45.5757668], [9.0840693, 45.5770752], [9.0826377, 45.5782441],
          [9.0815673, 45.5789665], [9.0801461, 45.579934], [9.0785238, 45.5810469],
          [9.0774871, 45.5818495], [9.0763874, 45.582759], [9.0752348, 45.583714],
          [9.0735601, 45.5851001], [9.0700507, 45.5879909], [9.0687919, 45.58898],
          [9.0674683, 45.5900309], [9.0656071, 45.5915657], [9.0642048, 45.5927826],
          [9.0615129, 45.5950362], [9.0598154, 45.5964469], [9.0586377, 45.5975624],
          [9.0570986, 45.5992242], [9.0558035, 45.6006531], [9.0525473, 45.6042289],
          [9.0495698, 45.6074645], [9.0478443, 45.6093292], [9.0454443, 45.6119189],
          [9.0432662, 45.6142555], [9.041272, 45.6164398], [9.0394168, 45.6184399],
          [9.0380881, 45.6197665], [9.0367205, 45.6209279], [9.034996, 45.6221346],
          [9.0334639, 45.6233318], [9.0306448, 45.6252648], [9.0280257, 45.6270404],
          [9.0254619, 45.6288327], [9.0242653, 45.6298868], [9.0235642, 45.6311583],
          [9.0234563, 45.632597], [9.0240974, 45.6341724], [9.0248698, 45.6350023],
          [9.0258771, 45.6356858], [9.0273129, 45.6363281], [9.029696, 45.6372964],
          [9.0322875, 45.6383424], [9.0338532, 45.6391432], [9.0349405, 45.6401099],
          [9.0355121, 45.6410242], [9.0357579, 45.6418832], [9.036089, 45.6441933],
          [9.0363265, 45.6463185], [9.0365245, 45.6480023], [9.036239, 45.6512034],
          [9.0362749, 45.6524553], [9.0370449, 45.653936], [9.0373483, 45.6549301],
          [9.0378498, 45.6601494], [9.0381971, 45.6639118], [9.0384158, 45.6677436],
          [9.0380134, 45.6702909], [9.0378925, 45.6720929], [9.0382281, 45.6734345],
          [9.0387316, 45.6751738], [9.0396118, 45.6771119], [9.0398201, 45.6814868],
          [9.0399195, 45.6847755], [9.0398693, 45.6880619], [9.0392723, 45.68933],
          [9.0378363, 45.6912878], [9.036185, 45.6935155], [9.0356998, 45.6944827],
          [9.0355851, 45.6952836], [9.0358238, 45.6966821], [9.036127, 45.6977224],
          [9.036046, 45.6992769], [9.0358783, 45.7010674], [9.0360639, 45.7021503],
          [9.0367836, 45.7040609], [9.0374242, 45.7059592], [9.0379741, 45.7076566],
          [9.0383586, 45.7084911], [9.0394394, 45.709594], [9.0400879, 45.7106509],
          [9.0403325, 45.7117219], [9.0403767, 45.7124233], [9.0401341, 45.7135112],
          [9.0401355, 45.7142669], [9.0407269, 45.7164337], [9.0412776, 45.718027],
          [9.0420012, 45.7192796], [9.0441273, 45.722814], [9.0443955, 45.7238137],
          [9.0441162, 45.724853], [9.0426184, 45.7266636], [9.0420899, 45.7274889],
          [9.0411966, 45.7296983], [9.040737, 45.7309498], [9.0407812, 45.731754],
          [9.0411927, 45.7334419], [9.0408375, 45.736147], [9.0400831, 45.7375778],
          [9.0399189, 45.7382633], [9.04022, 45.7395062], [9.0409822, 45.7417651],
          [9.0414154, 45.7427975], [9.0421071, 45.7435028], [9.0432539, 45.7441168],
          [9.0446434, 45.7447732], [9.0469535, 45.746498], [9.0484419, 45.747601],
          [9.0494526, 45.748482], [9.0499772, 45.7498166], [9.0497996, 45.7527481],
          [9.0497653, 45.7555299], [9.050189, 45.7586395], [9.0505259, 45.7611595],
          [9.0512815, 45.7673366], [9.0512493, 45.7699417], [9.0509599, 45.7754001],
          [9.0513539, 45.7786082], [9.05185, 45.7800691], [9.0526997, 45.7807507],
          [9.053704, 45.7811061], [9.0553229, 45.7812807], [9.056928, 45.7814043],
          [9.0582814, 45.7813371], [9.0634949, 45.7805639], [9.0657002, 45.7804744],
          [9.0746438, 45.7824181], [9.0769285, 45.7829555], [9.0783732, 45.7836771],
          [9.0803692, 45.7851916], [9.0828177, 45.7867257], [9.0842771, 45.7874521],
          [9.0860267, 45.7877969], [9.0870808, 45.7881769], [9.089196, 45.7894284],
          [9.0909848, 45.7902926], [9.0917677, 45.7914866], [9.0929588, 45.7938476],
          [9.0933592, 45.7944048], [9.0940703, 45.7949454], [9.0946119, 45.7953321],
          [9.0953595, 45.7961503], [9.0960699, 45.797304], [9.0962963, 45.7980884],
          [9.0958533, 45.7994782], [9.0936567, 45.8018711], [9.0928331, 45.8027553],
          [9.0918292, 45.8040671], [9.0913691, 45.8046122], [9.0908939, 45.8051612],
          [9.090332, 45.8057206], [9.0888489, 45.8073949], [9.0867739, 45.809742],
          [9.0862347, 45.8104121], [9.0850145, 45.8121859], [9.0848357, 45.8126605],
          [9.0844555, 45.8136099], [9.0842631, 45.8139099], [9.0838399, 45.814337]
        ]
      }
    }
  ]
}
