{
  "type": "FeatureCollection",
  "generator": "overpass-turbo",
  "copyright": "The data included in this document is from www.openstreetmap.org. The data is made available under ODbL.",
  "timestamp": "2026-09-30T16:23:36Z",
  "features": [
    {
      "type": "Feature",
      "properties": {
        "ref": "R27",
        "name": "Treno R27: Milano Cadorna => Novara Nord",
        "from": "Milano Cadorna",
        "to": "Novara Nord",
        "operator": "Trenord",
        "route": "train"
      },
      "geometry": {
        "type": "LineString",
        "coordinates": [
          [9.1752057, 45.4685179],
          [9.1750446, 45.4686434],
          [9.1733067, 45.4700003],
          [9.1728745, 45.470332],
          [9.1725189, 45.4705576],
          [9.1722267, 45.470783],
          [9.1719662, 45.4709834],
          [9.1715882, 45.4712757],
          [9.171251, 45.4715313],
          [9.1705839, 45.4720508],
          [9.1704042, 45.4722041],
          [9.1702493, 45.4723546],
          [9.1701042, 45.4725123],
          [9.169985, 45.4726603],
          [9.1698422, 45.472845],
          [9.1696428, 45.4731174],
          [9.1694598, 45.4733602],
          [9.1692596, 45.4736007],
          [9.1691652, 45.4737074],
          [9.1691013, 45.4737761],
          [9.1690242, 45.4738532],
          [9.1688994, 45.4739717],
          [9.1687322, 45.4741237],
          [9.1684948, 45.4743344],
          [9.1682597, 45.4745378],
          [9.1680116, 45.4747673],
          [9.1678172, 45.4749657],
          [9.1676334, 45.4751679],
          [9.1674846, 45.4753525],
          [9.1673287, 45.4755528],
          [9.1671731, 45.4757525],
          [9.167025, 45.4759564],
          [9.1665779, 45.4765389],
          [9.1662984, 45.4768896],
          [9.1660943, 45.4771268],
          [9.165835, 45.4774305],
          [9.1655614, 45.4777258],
          [9.1653274, 45.4779579],
          [9.1648373, 45.478416],
          [9.1644155, 45.478823],
          [9.1640755, 45.4791447],
          [9.1639065, 45.4793065],
          [9.1637697, 45.4794381],
          [9.16359, 45.479598],
          [9.1634237, 45.47974],
          [9.1628766, 45.4801726],
          [9.1628446, 45.4802003],
          [9.1622666, 45.4806969],
          [9.1621511, 45.480804],
          [9.1619126, 45.4810302],
          [9.1616737, 45.481273],
          [9.1614302, 45.4815404],
          [9.1611387, 45.4819205],
          [9.1609261, 45.4822454],
          [9.1607811, 45.4825174],
          [9.1606658, 45.4828111],
          [9.1605878, 45.4830654],
          [9.160536, 45.4833163],
          [9.1605004, 45.4835629],
          [9.1604836, 45.4838444],
          [9.160495, 45.4841794],
          [9.1605552, 45.4847287],
          [9.1606021, 45.4852409],
          [9.1606331, 45.4857245],
          [9.160653, 45.4863614],
          [9.1606718, 45.4870271],
          [9.1607464, 45.4882843],
          [9.1607624, 45.488473],
          [9.1607684, 45.4885216],
          [9.1607786, 45.4886043],
          [9.1608428, 45.4890142],
          [9.1608917, 45.4893456],
          [9.1609239, 45.4896201],
          [9.160948, 45.4898852],
          [9.1609534, 45.4901034],
          [9.1609588, 45.4903591],
          [9.1609479, 45.4906819],
          [9.1609296, 45.490942],
          [9.1608902, 45.4912626],
          [9.1608381, 45.4915549],
          [9.1607258, 45.4920339],
          [9.1605724, 45.4928357],
          [9.1604572, 45.4934375],
          [9.1603754, 45.4938726],
          [9.1603338, 45.4941336],
          [9.1602212, 45.4950023],
          [9.1600787, 45.4961856],
          [9.1600202, 45.4966424],
          [9.1599463, 45.4972772],
          [9.1599187, 45.4975867],
          [9.15984, 45.4981807],
          [9.1598242, 45.4983169],
          [9.1597599, 45.4987587],
          [9.1597183, 45.4991554],
          [9.1596593, 45.4996019],
          [9.1595895, 45.5001462],
          [9.1594943, 45.5009048],
          [9.1594661, 45.5010862],
          [9.1594272, 45.5012717],
          [9.1593889, 45.5014699],
          [9.1593624, 45.5015706],
          [9.159209, 45.5021505],
          [9.1591091, 45.502528],
          [9.1588558, 45.5034854],
          [9.1588257, 45.503585],
          [9.1588082, 45.5036203],
          [9.1587842, 45.5036905],
          [9.1587224, 45.503859],
          [9.1586406, 45.5040495],
          [9.1585609, 45.5042114],
          [9.1584575, 45.5043864],
          [9.1583477, 45.5045517],
          [9.1582182, 45.5047309],
          [9.1580714, 45.5049146],
          [9.1579305, 45.5050716],
          [9.1577496, 45.5052613],
          [9.1575, 45.5055068],
          [9.1571776, 45.5058276],
          [9.1568228, 45.5061834],
          [9.1564037, 45.5065965],
          [9.1560281, 45.5069659],
          [9.1559122, 45.5070838],
          [9.1557808, 45.5072196],
          [9.1555408, 45.507486],
          [9.1547036, 45.5084333],
          [9.1535996, 45.5097068],
          [9.153376, 45.5099614],
          [9.1526192, 45.5108438],
          [9.1520116, 45.5115217],
          [9.1514008, 45.5121814],
          [9.1508, 45.5128317],
          [9.150152, 45.5135348],
          [9.1499678, 45.5137396],
          [9.1497277, 45.5139942],
          [9.1494106, 45.514349],
          [9.1475994, 45.5164112],
          [9.1457051, 45.5185536],
          [9.1452707, 45.5190481],
          [9.1442914, 45.5201608],
          [9.1439649, 45.520538],
          [9.1436828, 45.52087],
          [9.1424704, 45.5222593],
          [9.1419889, 45.5228099],
          [9.1401135, 45.5249404],
          [9.1389406, 45.5262878],
          [9.1383697, 45.5269391],
          [9.1358172, 45.5298368],
          [9.1356133, 45.5300703],
          [9.1351419, 45.5306063],
          [9.1346738, 45.5311103],
          [9.1343896, 45.5314011],
          [9.1340502, 45.5317543],
          [9.1337927, 45.5320159],
          [9.1335148, 45.5322952],
          [9.1330589, 45.5327409],
          [9.1327185, 45.5330737],
          [9.1318647, 45.5339146],
          [9.1315162, 45.5342753],
          [9.1311798, 45.5346346],
          [9.1306479, 45.5351964],
          [9.1301054, 45.5357516],
          [9.1296085, 45.5362385],
          [9.1275284, 45.5382728],
          [9.1272993, 45.5385011],
          [9.126131, 45.5396443],
          [9.1250139, 45.5407292],
          [9.1245929, 45.5411294],
          [9.1241496, 45.541544],
          [9.1238107, 45.5418727],
          [9.1230035, 45.5426588],
          [9.1221584, 45.5434898],
          [9.121706, 45.5439401],
          [9.1213989, 45.5442586],
          [9.1210776, 45.5445952],
          [9.120483, 45.5452095],
          [9.1200605, 45.5456251],
          [9.1196588, 45.546002],
          [9.1183295, 45.5472191],
          [9.1168398, 45.5485794],
          [9.1156228, 45.5496867],
          [9.1153365, 45.5499351],
          [9.1148275, 45.5503681],
          [9.1143161, 45.5507923],
          [9.1138395, 45.5511979],
          [9.1132132, 45.5517509],
          [9.1121948, 45.5526715],
          [9.1114636, 45.5533309],
          [9.1109995, 45.553782],
          [9.1105548, 45.5542048],
          [9.1100856, 45.5546583],
          [9.1095322, 45.5551753],
          [9.109431, 45.5552688],
          [9.1079884, 45.5565865],
          [9.1079151, 45.5566517],
          [9.1067386, 45.5577296],
          [9.1060024, 45.558386],
          [9.1055846, 45.5587484],
          [9.105012, 45.5592348],
          [9.100725, 45.562858],
          [9.1006304, 45.5629371],
          [9.0988791, 45.5644287],
          [9.0977217, 45.5654042],
          [9.097416, 45.5656699],
          [9.0970673, 45.5659809],
          [9.0955754, 45.5673506],
          [9.0948217, 45.5679842],
          [9.0940837, 45.5685951],
          [9.0936267, 45.5689804],
          [9.0928601, 45.5696315],
          [9.0912392, 45.5710056],
          [9.0909695, 45.5712357],
          [9.0897529, 45.5722704],
          [9.0885806, 45.5732653],
          [9.0871763, 45.5744571],
          [9.0856243, 45.5757668],
          [9.0840693, 45.5770752],
          [9.0834406, 45.5776101],
          [9.0830822, 45.5779024],
          [9.0826377, 45.5782441],
          [9.0822662, 45.5785135],
          [9.0820395, 45.5786693],
          [9.0815673, 45.5789665],
          [9.0810705, 45.5792988],
          [9.0801461, 45.579934],
          [9.0790456, 45.5806835],
          [9.0785238, 45.5810469],
          [9.0783267, 45.5811919],
          [9.0780115, 45.5814299],
          [9.0774871, 45.5818495],
          [9.0769959, 45.582258],
          [9.0763874, 45.582759],
          [9.0752348, 45.583714],
          [9.0748022, 45.584074],
          [9.0735601, 45.5851001],
          [9.0725532, 45.5859248],
          [9.0700507, 45.5879909],
          [9.0687919, 45.58898],
          [9.0680954, 45.5895208],
          [9.0674683, 45.5900309],
          [9.0664466, 45.5908705],
          [9.0656071, 45.5915657],
          [9.0642048, 45.5927826],
          [9.0629522, 45.5938452],
          [9.0615129, 45.5950362],
          [9.0600949, 45.5962024],
          [9.0586377, 45.5975624],
          [9.0580725, 45.5981684],
          [9.0570986, 45.5992242],
          [9.0564305, 45.5999521],
          [9.0549888, 45.6015764],
          [9.0525473, 45.6042289],
          [9.0506423, 45.6063047],
          [9.0486715, 45.6084344],
          [9.0468149, 45.6104388],
          [9.0454443, 45.6119189],
          [9.0445407, 45.6128987],
          [9.0432662, 45.6142555],
          [9.041272, 45.6164398],
          [9.0398886, 45.6179543],
          [9.0387929, 45.6190644],
          [9.0376768, 45.620167],
          [9.0367205, 45.6209279],
          [9.0354822, 45.6217971],
          [9.0341234, 45.6227475],
          [9.0327425, 45.6235141],
          [9.0319481, 45.6239859],
          [9.0303821, 45.6250852],
          [9.0288777, 45.6262127],
          [9.0278392, 45.6269438],
          [9.026362, 45.6277363],
          [9.0250272, 45.628099],
          [9.0235026, 45.6282553],
          [9.0222168, 45.6281975],
          [9.0190398, 45.6279349],
          [9.0165325, 45.6277255],
          [9.0116385, 45.6273396],
          [9.0075513, 45.6270066],
          [9.003132, 45.6266467],
          [8.9979179, 45.6262345],
          [8.9926204, 45.6258032],
          [8.9872878, 45.625383],
          [8.9824569, 45.6249822],
          [8.9742918, 45.6243437],
          [8.9687112, 45.6239095],
          [8.9613435, 45.6233487],
          [8.9552227, 45.6228578],
          [8.9509208, 45.622525],
          [8.9462411, 45.6221459],
          [8.9403133, 45.621672],
          [8.9335898, 45.6211212],
          [8.9285089, 45.6207334],
          [8.9232447, 45.6203996],
          [8.9127278, 45.6195808],
          [8.9068809, 45.6189973],
          [8.9039624, 45.618581],
          [8.9016047, 45.6178031],
          [8.8996043, 45.6166642],
          [8.8972905, 45.6150745],
          [8.8953283, 45.6138801],
          [8.8933996, 45.6131985],
          [8.8906759, 45.612719],
          [8.8858375, 45.6122015],
          [8.8807513, 45.6113701],
          [8.8761842, 45.6105987],
          [8.871644, 45.6096726],
          [8.8673062, 45.6087446],
          [8.8605028, 45.6073016],
          [8.8545711, 45.6064213],
          [8.848456, 45.6057026],
          [8.8417505, 45.6049241],
          [8.8386673, 45.6041228],
          [8.8332288, 45.6014746],
          [8.8296429, 45.5996328],
          [8.8245993, 45.5972041],
          [8.817899, 45.5939072],
          [8.8118549, 45.5909244],
          [8.8065378, 45.588289],
          [8.8003063, 45.5852148],
          [8.7927709, 45.5814659],
          [8.7885386, 45.5789601],
          [8.7858337, 45.5751226],
          [8.7813825, 45.5686399],
          [8.7775649, 45.563117],
          [8.7725672, 45.5558677],
          [8.7708614, 45.5530084],
          [8.7703972, 45.5512118],
          [8.7695669, 45.5499389],
          [8.7676314, 45.5486065],
          [8.7552504, 45.5421969],
          [8.7527412, 45.5405697],
          [8.7510816, 45.5388919],
          [8.744597, 45.5314718],
          [8.742207, 45.5297541],
          [8.7387652, 45.527998],
          [8.7356821, 45.5261204],
          [8.7334717, 45.5237495],
          [8.7280012, 45.5176036],
          [8.7211409, 45.5098818],
          [8.7185717, 45.5071359],
          [8.7102114, 45.4976773],
          [8.7040517, 45.490777],
          [8.6990331, 45.485178],
          [8.6964161, 45.4827537],
          [8.6940642, 45.4819158],
          [8.6887668, 45.4805413],
          [8.681507, 45.47859],
          [8.6674445, 45.4748506],
          [8.6623124, 45.4734977],
          [8.6574269, 45.4721822],
          [8.6540572, 45.4711968],
          [8.650479, 45.4699999],
          [8.6464676, 45.4686636],
          [8.6439818, 45.4674824],
          [8.6419941, 45.4655277],
          [8.6398106, 45.4628943],
          [8.637378, 45.4601922],
          [8.6353824, 45.458691],
          [8.6328036, 45.456852],
          [8.6306399, 45.4553089],
          [8.6297647, 45.4541765],
          [8.6287988, 45.453277],
          [8.6276743, 45.4526539],
          [8.6267312, 45.4522671]
        ]
      }
    }
  ]
}

